ISS OBJECT YE           
1 67688U 98067YE  26062.41037585  .00049325  00000+0  81368-3 0  9995
2 67688  51.6313 102.9800 0007700 129.5648 230.6023 15.51755615  3735
CREW DRAGON 12          
1 67796U 26031A   26062.76956237  .00010027  00000+0  19358-3 0  9996
2 67796  51.6317 101.6250 0008204 153.6152 206.5256 15.48425902555654
