[{"OBJECT_NAME":"ISS OBJECT YE","OBJECT_ID":"1998-067YE","EPOCH":"2026-03-03T09:50:56.473440","MEAN_MOTION":15.51755615,"ECCENTRICITY":0.00077001,"INCLINATION":51.6313,"RA_OF_ASC_NODE":102.98,"ARG_OF_PERICENTER":129.5648,"MEAN_ANOMALY":230.6023,"EPHEMERIS_TYPE":0,"CLASSIFICATION_TYPE":"U","NORAD_CAT_ID":67688,"ELEMENT_SET_NO":999,"REV_AT_EPOCH":373,"BSTAR":0.00081367548,"MEAN_MOTION_DOT":0.00049325,"MEAN_MOTION_DDOT":0},{"OBJECT_NAME":"CREW DRAGON 12","OBJECT_ID":"2026-031A","EPOCH":"2026-03-03T18:28:10.188768","MEAN_MOTION":15.48425902,"ECCENTRICITY":0.0008204,"INCLINATION":51.6317,"RA_OF_ASC_NODE":101.625,"ARG_OF_PERICENTER":153.6152,"MEAN_ANOMALY":206.5256,"EPHEMERIS_TYPE":0,"CLASSIFICATION_TYPE":"U","NORAD_CAT_ID":67796,"ELEMENT_SET_NO":999,"REV_AT_EPOCH":55565,"BSTAR":0.00019358,"MEAN_MOTION_DOT":0.00010027,"MEAN_MOTION_DDOT":0}]
